ONEWEB-0435             
1 51632U 22012L   24212.58897068  .00000305  00000+0  83681-3 0  9992
2 51632  87.8967 172.8385 0001887  71.0905 289.0427 13.10370316119394
ONEWEB-0436             
1 51633U 22012M   24212.52153529  .00000068  00000+0  14262-3 0  9999
2 51633  87.9190 142.5894 0001976  72.1120 288.0227 13.17652437123254
ONEWEB-0438             
1 51634U 22012N   24212.41966129  .00000711  00000+0  19994-2 0  9997
2 51634  87.8970 172.8723 0002298  82.4899 277.6490 13.10373932119403
ONEWEB-0439             
1 51635U 22012P   24212.42297800  .00000703  00000+0  19789-2 0  9995
2 51635  87.8971 172.8569 0002065  80.1206 280.0155 13.10371264119381
ONEWEB-0442             
1 51636U 22012Q   24212.51427223  .00000084  00000+0  18365-3 0  9992
2 51636  87.9192 142.6275 0002557  93.6391 266.5033 13.17649271124537
ONEWEB-0443             
1 51637U 22012R   24212.76066059 -.00000006  00000+0 -49368-4 0  9990
2 51637  87.9193 142.5869 0002195  65.4667 294.6693 13.17648790124616
ONEWEB-0444             
1 51638U 22012S   24212.87116263  .00000522  00000+0  14595-2 0  9999
2 51638  87.8969 172.7878 0002028  75.9038 284.2315 13.10375178120741
ONEWEB-0445             
1 51639U 22012T   24212.89274340  .00000371  00000+0  10275-2 0  9996
2 51639  87.8958 172.7538 0002143  90.2679 269.8694 13.10370713120741
